{
  "norad_id": 52333,
  "name": "STARLINK-3847",
  "history": [
    {
      "epoch": "2026-03-28T19:09:30.421728Z",
      "apogee_km": 540.5750930092654,
      "perigee_km": 538.9315406277956,
      "latitude_deg": 7.040467870423607e-05,
      "longitude_deg": 9.751249659950219,
      "height_km": 540.683673976905,
      "semi_major_axis_km": 6917.890316818531,
      "eccentricity": 0.00011879,
      "inclination_deg": 53.2162,
      "raan_deg": 123.3415,
      "arg_perigee_deg": 92.4098,
      "mean_anomaly_deg": 267.7031,
      "mean_motion_rev_day": 15.08836752
    }
  ]
}